     3.02           N: GNSS NAV DATA    J: QZSS             RINEX VERSION / TYPE
BINEX2RINEX  2.10   GSI, JAPAN          20240102 17:54:55UTCPGM / RUN BY / DATE
                                                            END OF HEADER
J07 2024 01 01 09 00 00-4.097819328308D-08 0.000000000000D+00 0.000000000000D+00
     1.290000000000D+02-2.957812500000D+02 0.000000000000D+00 1.192069291865D+00
    -9.823590517044D-06 1.971550518647D-04 6.861984729767D-06 6.493511489868D+03
     1.188000000000D+05-4.693865776062D-07 3.213053176447D-01-1.676380634308D-06
     1.406339722552D-03-2.110000000000D+02 3.083520206936D+00 1.000755971217D-09
     0.000000000000D+00 2.000000000000D+00 2.295000000000D+03 0.000000000000D+00
     2.800000000000D+00 1.000000000000D+00-3.725290298462D-09 8.970000000000D+02
     1.152060000000D+05 0.000000000000D+00
J03 2024 01 01 09 00 00-1.089647412300D-07-1.136868377216D-13 0.000000000000D+00
     1.290000000000D+02 2.823437500000D+02 2.221878264434D-09 1.873427266943D+00
     9.715557098389D-06 7.536842394620D-02 9.067356586456D-06 6.492766178131D+03
     1.188000000000D+05 2.663582563400D-07-1.818388900682D+00-6.109476089478D-07
     7.081445712581D-01-1.635312500000D+02-1.596900095722D+00-2.347597786871D-09
     7.786038605475D-11 2.000000000000D+00 2.295000000000D+03 0.000000000000D+00
     2.800000000000D+00 1.000000000000D+00 1.396983861923D-09 8.970000000000D+02
     1.154460000000D+05 0.000000000000D+00
J02 2024 01 01 10 00 00-8.880160748959D-07-2.273736754432D-13 0.000000000000D+00
     1.330000000000D+02-1.771875000000D+01 2.004012046574D-09-2.336367224993D+00
    -5.289912223816D-07 7.528795697726D-02 1.030042767525D-06 6.493224918365D+03
     1.224000000000D+05-2.475455403328D-06 2.742063799861D+00-9.946525096893D-07
     7.130497268004D-01 1.098750000000D+02-1.578566920460D+00-1.775788254423D-09
     5.250218692682D-10 2.000000000000D+00 2.295000000000D+03 0.000000000000D+00
     2.800000000000D+00 1.000000000000D+00 1.862645149231D-09 9.010000000000D+02
     1.188060000000D+05 0.000000000000D+00
J04 2024 01 01 10 00 00 7.562059909105D-05 1.023181539495D-12 0.000000000000D+00
     1.330000000000D+02-2.949062500000D+02 3.201919087068D-09 3.293760348054D-01
    -1.070834696293D-05 7.531853439286D-02-1.143664121628D-06 6.493831163406D+03
     1.224000000000D+05-5.010515451431D-07-1.045282163283D-01-8.009374141693D-08
     6.219213558522D-01 1.767500000000D+02-1.547242065665D+00-3.242992226500D-09
     1.046472161195D-10 2.000000000000D+00 2.295000000000D+03 0.000000000000D+00
     2.800000000000D+00 1.000000000000D+00-2.793967723846D-09 9.010000000000D+02
     1.188060000000D+05 0.000000000000D+00
J03 2024 01 01 10 00 00-1.080334186554D-07 0.000000000000D+00 0.000000000000D+00
     1.330000000000D+02 3.108750000000D+02 1.949009755508D-09 2.136002022292D+00
     1.039728522301D-05 7.536717585754D-02 8.990988135338D-06 6.492771192551D+03
     1.224000000000D+05 2.775341272354D-07-1.818394910350D+00-1.471489667892D-07
     7.081464437932D-01-1.572187500000D+02-1.596876716828D+00-2.091158533718D-09
    -2.500104139373D-12 2.000000000000D+00 2.295000000000D+03 0.000000000000D+00
     2.800000000000D+00 1.000000000000D+00 1.396983861923D-09 9.010000000000D+02
     1.188060000000D+05 0.000000000000D+00
J07 2024 01 01 10 00 00-4.097819328308D-08 0.000000000000D+00 0.000000000000D+00
     1.330000000000D+02-3.184062500000D+02 0.000000000000D+00 1.473697112760D+00
    -1.052953302860D-05 1.962676178664D-04 5.831941962242D-06 6.493502075195D+03
     1.224000000000D+05 1.583248376846D-07 3.222414477012D-01-1.225620508194D-06
     1.407012664868D-03-1.778125000000D+02 3.063462492641D+00 1.062901416968D-09
     0.000000000000D+00 2.000000000000D+00 2.295000000000D+03 0.000000000000D+00
     2.800000000000D+00 1.000000000000D+00-3.725290298462D-09 9.010000000000D+02
     1.188060000000D+05 0.000000000000D+00
J02 2024 01 01 11 00 00-8.894130587578D-07-2.273736754432D-13 0.000000000000D+00
     1.370000000000D+02 1.271875000000D+01 1.668640934164D-09-2.073851493999D+00
     4.097819328308D-07 7.529025501572D-02 1.244246959686D-06 6.493217502594D+03
     1.260000000000D+05-1.151114702225D-06 2.742054109491D+00-2.747401595116D-06
     7.130524712347D-01 1.088125000000D+02-1.578534844518D+00-1.303625729816D-09
     4.175173912752D-10 2.000000000000D+00 2.295000000000D+03 0.000000000000D+00
     2.800000000000D+00 1.000000000000D+00 1.862645149231D-09 9.050000000000D+02
     1.224060000000D+05 0.000000000000D+00
J04 2024 01 01 11 00 00 7.562432438135D-05 1.023181539495D-12 0.000000000000D+00
     1.370000000000D+02-2.868750000000D+02 2.655110596014D-09 5.918509825691D-01
    -1.068599522114D-05 7.531828654464D-02-1.503154635429D-06 6.493831253052D+03
     1.260000000000D+05-1.534819602966D-06-1.045488361587D-01-1.141801476479D-06
     6.219249663341D-01 1.877812500000D+02-1.547235058288D+00-2.450816372054D-09
     5.932389964997D-10 2.000000000000D+00 2.295000000000D+03 0.000000000000D+00
     2.800000000000D+00 1.000000000000D+00-2.793967723846D-09 9.050000000000D+02
     1.224060000000D+05 0.000000000000D+00
J03 2024 01 01 11 00 00-1.071020960808D-07 0.000000000000D+00 0.000000000000D+00
     1.370000000000D+02 3.798750000000D+02 1.435774091468D-09 2.398551292146D+00
     1.206807792187D-05 7.536328502465D-02 9.369105100632D-06 6.492782602310D+03
     1.260000000000D+05-9.182840585709D-07-1.818395935855D+00 3.203749656677D-07
     7.081490902121D-01-1.693125000000D+02-1.596832955096D+00-1.639353999960D-09
    -3.560862609935D-10 2.000000000000D+00 2.295000000000D+03 0.000000000000D+00
     2.800000000000D+00 1.000000000000D+00 1.396983861923D-09 9.050000000000D+02
     1.224060000000D+05 0.000000000000D+00
J07 2024 01 01 11 00 00-4.097819328308D-08 0.000000000000D+00 0.000000000000D+00
     1.370000000000D+02-3.223125000000D+02 0.000000000000D+00 1.757013540495D+00
    -1.065060496330D-05 1.964394468814D-04 4.505738615990D-06 6.493492115021D+03
     1.260000000000D+05 2.179294824600D-07 3.225679871086D-01-1.000240445137D-06
     1.407072644509D-03-1.349687500000D+02 3.042327216294D+00 1.129689913262D-09
     0.000000000000D+00 2.000000000000D+00 2.295000000000D+03 0.000000000000D+00
     2.800000000000D+00 1.000000000000D+00-3.725290298462D-09 9.050000000000D+02
     1.224060000000D+05 0.000000000000D+00
J02 2024 01 01 12 00 00-8.903443813324D-07-2.273736754432D-13 0.000000000000D+00
     1.410000000000D+02 2.721875000000D+01 1.730429222180D-09-1.811321155768D+00
     9.704381227493D-07 7.529094815254D-02 1.443549990654D-06 6.493214708328D+03
     1.296000000000D+05 1.074746251106D-06 2.742050125966D+00-2.272427082062D-06
     7.130516125018D-01 1.051250000000D+02-1.578521694347D+00-1.381128958136D-09
     5.785955293977D-11 2.000000000000D+00 2.295000000000D+03 0.000000000000D+00
     2.800000000000D+00 1.000000000000D+00 1.862645149231D-09 9.090000000000D+02
     1.260060000000D+05 0.000000000000D+00
J04 2024 01 01 12 00 00 7.562804967165D-05 1.023181539495D-12 0.000000000000D+00
     1.410000000000D+02-3.351562500000D+02 1.398986844846D-09 8.542516506673D-01
    -1.204945147038D-05 7.532315712888D-02-2.549961209297D-06 6.493851482391D+03
     1.296000000000D+05-3.371387720108D-07-1.045680749943D-01-3.689900040627D-06
     6.219337131212D-01 2.141250000000D+02-1.547156275760D+00-9.636115668610D-10
     8.978945437690D-10 2.000000000000D+00 2.295000000000D+03 0.000000000000D+00
     2.800000000000D+00 1.000000000000D+00-2.793967723846D-09 9.090000000000D+02
     1.260060000000D+05 0.000000000000D+00
J03 2024 01 01 12 00 00-1.071020960808D-07 0.000000000000D+00 0.000000000000D+00
     1.410000000000D+02 4.581562500000D+02 1.276124584283D-09 2.661096792060D+00
     1.406855881214D-05 7.535665738396D-02 1.051090657711D-05 6.492799150467D+03
     1.296000000000D+05-1.424923539162D-06-1.818400538196D+00-6.500631570816D-07
     7.081486381704D-01-2.168750000000D+02-1.596784582247D+00-1.667569460962D-09
    -5.593090117511D-10 2.000000000000D+00 2.295000000000D+03 0.000000000000D+00
     2.800000000000D+00 1.000000000000D+00 1.396983861923D-09 9.090000000000D+02
     1.260060000000D+05 0.000000000000D+00
J07 2024 01 01 12 00 00-4.097819328308D-08 0.000000000000D+00 0.000000000000D+00
     1.410000000000D+02-3.140312500000D+02 0.000000000000D+00 2.029861361565D+00
    -1.039728522301D-05 1.970563316718D-04 3.857538104057D-06 6.493486932755D+03
     1.296000000000D+05 4.507601261139D-07 3.221381335006D-01-1.251697540283D-06
     1.407311100156D-03-1.138437500000D+02 3.032418108500D+00 1.165048528948D-09
     0.000000000000D+00 2.000000000000D+00 2.295000000000D+03 0.000000000000D+00
     2.800000000000D+00 1.000000000000D+00-3.725290298462D-09 9.090000000000D+02
     1.260060000000D+05 0.000000000000D+00
J02 2024 01 01 13 00 00-8.898787200451D-07-2.273736754432D-13 0.000000000000D+00
     1.450000000000D+02 3.181250000000D+01 1.954724279255D-09-1.548776377073D+00
     1.287087798119D-06 7.529093092307D-02 1.499429345131D-06 6.493214874268D+03
     1.332000000000D+05 2.061948180199D-06 2.742045781099D+00-5.252659320831D-07
     7.130483677495D-01 1.070000000000D+02-1.578523072416D+00-1.706142496255D-09
    -2.582250418238D-10 2.000000000000D+00 2.295000000000D+03 0.000000000000D+00
     2.800000000000D+00 1.000000000000D+00 1.862645149231D-09 9.130000000000D+02
     1.296060000000D+05 0.000000000000D+00
J04 2024 01 01 13 00 00 7.563177496195D-05 1.023181539495D-12 0.000000000000D+00
     1.450000000000D+02-4.013437500000D+02 3.803729869188D-10 1.116572093801D+00
    -1.376494765282D-05 7.532837695908D-02-5.161389708519D-06 6.493882934570D+03
     1.332000000000D+05 3.119930624962D-06-1.045750999270D-01-3.304332494736D-06
     6.219412193539D-01 3.041875000000D+02-1.547010013211D+00 1.678641350722D-11
     6.032394130572D-10 2.000000000000D+00 2.295000000000D+03 0.000000000000D+00
     2.800000000000D+00 1.000000000000D+00-2.793967723846D-09 9.130000000000D+02
     1.296060000000D+05 0.000000000000D+00
